[{"OBJECT_NAME":"STARLINK-3973","OBJECT_ID":"2022-052AZ","EPOCH":"2026-03-09T17:22:25.203648","MEAN_MOTION":15.08837356,"ECCENTRICITY":0.00014154,"INCLINATION":53.2166,"RA_OF_ASC_NODE":259.074,"ARG_OF_PERICENTER":86.9851,"MEAN_ANOMALY":273.1303,"EPHEMERIS_TYPE":0,"CLASSIFICATION_TYPE":"U","NORAD_CAT_ID":52645,"ELEMENT_SET_NO":999,"REV_AT_EPOCH":21113,"BSTAR":1.2438642e-5,"MEAN_MOTION_DOT":-9.0e-7,"MEAN_MOTION_DDOT":0},{"OBJECT_NAME":"CZ-6A DEB","OBJECT_ID":"2022-151KK","EPOCH":"2026-03-09T15:42:53.993376","MEAN_MOTION":15.13886585,"ECCENTRICITY":0.0019766,"INCLINATION":98.5478,"RA_OF_ASC_NODE":140.8365,"ARG_OF_PERICENTER":144.334,"MEAN_ANOMALY":215.9214,"EPHEMERIS_TYPE":0,"CLASSIFICATION_TYPE":"U","NORAD_CAT_ID":54531,"ELEMENT_SET_NO":999,"REV_AT_EPOCH":8393,"BSTAR":0.0066445138,"MEAN_MOTION_DOT":0.00122683,"MEAN_MOTION_DDOT":0}]
